$$SOE
2460721.500000000, A.D. 2025-Feb-15 00:00:00.0000, -2.108814357343793E+08, -1.827516954832013E+08, -8.114108107694268E+06,
2460728.500000000, A.D. 2025-Feb-22 00:00:00.0000, -2.104030514542474E+08, -1.960448338618324E+08, -9.074097807314098E+06,
2460735.500000000, A.D. 2025-Mar-01 00:00:00.0000, -2.094954465540805E+08, -2.089385091683602E+08, -1.001560575727686E+07,
2460742.500000000, A.D. 2025-Mar-08 00:00:00.0000, -2.081955331531971E+08, -2.214413365126674E+08, -1.093838412959900E+07,
2460749.500000000, A.D. 2025-Mar-15 00:00:00.0000, -2.065360631024344E+08, -2.335621088131866E+08, -1.184229514687759E+07,
2460756.500000000, A.D. 2025-Mar-22 00:00:00.0000, -2.045462221191501E+08, -2.453096212380230E+08, -1.272728449786362E+07,
2460763.500000000, A.D. 2025-Mar-29 00:00:00.0000, -2.022521248601548E+08, -2.566925520518883E+08, -1.359336121160521E+07,
2460770.500000000, A.D. 2025-Apr-05 00:00:00.0000, -1.996772284790228E+08, -2.677193813491999E+08, -1.444058224832961E+07,
2460777.500000000, A.D. 2025-Apr-12 00:00:00.0000, -1.968426809981340E+08, -2.783983366164345E+08, -1.526904050366382E+07,
2460784.500000000, A.D. 2025-Apr-19 00:00:00.0000, -1.937676162957386E+08, -2.887373581560137E+08, -1.607885544942294E+07,
2460791.500000000, A.D. 2025-Apr-26 00:00:00.0000, -1.904694048132435E+08, -2.987440789190385E+08, -1.687016582948804E+07,
2460798.500000000, A.D. 2025-May-03 00:00:00.0000, -1.869638674589531E+08, -3.084258146355667E+08, -1.764312394980541E+07,
2460805.500000000, A.D. 2025-May-10 00:00:00.0000, -1.832654588436306E+08, -3.177895612649684E+08, -1.839789120809418E+07,
2460812.500000000, A.D. 2025-May-17 00:00:00.0000, -1.793874248378238E+08, -3.268419976503781E+08, -1.913463459859300E+07,
2460819.500000000, A.D. 2025-May-24 00:00:00.0000, -1.753419383954270E+08, -3.355894918615289E+08, -1.985352400437526E+07,
2460826.500000000, A.D. 2025-May-31 00:00:00.0000, -1.711402166135256E+08, -3.440381097679648E+08, -2.055473012944321E+07,
2460833.500000000, A.D. 2025-Jun-07 00:00:00.0000, -1.667926222247604E+08, -3.521936237978771E+08, -2.123842281007101E+07,
2460840.500000000, A.D. 2025-Jun-14 00:00:00.0000, -1.623087542001596E+08, -3.600615219355649E+08, -2.190476944500712E+07,
2460847.500000000, A.D. 2025-Jun-21 00:00:00.0000, -1.576975281684159E+08, -3.676470197846287E+08, -2.255393384691425E+07,
2460854.500000000, A.D. 2025-Jun-28 00:00:00.0000, -1.529672451303584E+08, -3.749550736141170E+08, -2.318607559769334E+07,
2460861.500000000, A.D. 2025-Jul-05 00:00:00.0000, -1.481256513333824E+08, -3.819903920030786E+08, -2.380134954464728E+07,
2460868.500000000, A.D. 2025-Jul-12 00:00:00.0000, -1.431799916301699E+08, -3.887574467262746E+08, -2.439990535592920E+07,
2460875.500000000, A.D. 2025-Jul-19 00:00:00.0000, -1.381370570878346E+08, -3.952604833430477E+08, -2.498188716914266E+07,
2460882.500000000, A.D. 2025-Jul-26 00:00:00.0000, -1.330032274461575E+08, -4.015035314704698E+08, -2.554743333257374E+07,
2460889.500000000, A.D. 2025-Aug-02 00:00:00.0000, -1.277845090464274E+08, -4.074904146725130E+08, -2.609667622380549E+07,
2460896.500000000, A.D. 2025-Aug-09 00:00:00.0000, -1.224865687938935E+08, -4.132247599545979E+08, -2.662974213342366E+07,
2460903.500000000, A.D. 2025-Aug-16 00:00:00.0000, -1.171147645795395E+08, -4.187100069162381E+08, -2.714675121333390E+07,
2460910.500000000, A.D. 2025-Aug-23 00:00:00.0000, -1.116741723004325E+08, -4.239494165448782E+08, -2.764781750479993E+07,
2460917.500000000, A.D. 2025-Aug-30 00:00:00.0000, -1.061696095217191E+08, -4.289460789436152E+08, -2.813304900952649E+07,
2460924.500000000, A.D. 2025-Sep-06 00:00:00.0000, -1.006056575196897E+08, -4.337029190038913E+08, -2.860254758498284E+07,
2460931.500000000, A.D. 2025-Sep-13 00:00:00.0000, -9.498668365441187E+07, -4.382227025204244E+08, -2.905640870793447E+07,
2460938.500000000, A.D. 2025-Sep-20 00:00:00.0000, -8.931686103974067E+07, -4.425080444108164E+08, -2.949472153627631E+07,
2460945.500000000, A.D. 2025-Sep-27 00:00:00.0000, -8.360018466319664E+07, -4.465614159488202E+08, -2.991756910833359E+07,
2460952.500000000, A.D. 2025-Oct-04 00:00:00.0000, -7.784048615759151E+07, -4.503851504922813E+08, -3.032502844751313E+07,
2460959.500000000, A.D. 2025-Oct-11 00:00:00.0000, -7.204144776034671E+07, -4.539814486680939E+08, -3.071717061255047E+07,
2460966.500000000, A.D. 2025-Oct-18 00:00:00.0000, -6.620661531938249E+07, -4.573523833071787E+08, -3.109406073974925E+07,
2460973.500000000, A.D. 2025-Oct-25 00:00:00.0000, -6.033941033146526E+07, -4.604999041363543E+08, -3.145575808752117E+07,
2460980.500000000, A.D. 2025-Nov-01 00:00:00.0000, -5.444314108421745E+07, -4.634258422290967E+08, -3.180231608441442E+07,
2460987.500000000, A.D. 2025-Nov-08 00:00:00.0000, -4.852101296550173E+07, -4.661319142638631E+08, -3.213378238553640E+07,
2460994.500000000, A.D. 2025-Nov-15 00:00:00.0000, -4.257613788023619E+07, -4.686197266652013E+08, -3.245019895510021E+07,
2461001.500000000, A.D. 2025-Nov-22 00:00:00.0000, -3.661154245088180E+07, -4.708907794231354E+08, -3.275160219354975E+07,
2461008.500000000, A.D. 2025-Nov-29 00:00:00.0000, -3.063017522583875E+07, -4.729464684701030E+08, -3.303802300204435E+07,
2461015.500000000, A.D. 2025-Dec-06 00:00:00.0000, -2.463491523719319E+07, -4.747880867639749E+08, -3.330948658614802E+07,
2461022.500000000, A.D. 2025-Dec-13 00:00:00.0000, -1.862858153161558E+07, -4.764168274585973E+08, -3.356601231360170E+07,
2461029.500000000, A.D. 2025-Dec-20 00:00:00.0000, -1.261394023342993E+07, -4.778337881497763E+08, -3.380761386269423E+07,
2461036.500000000, A.D. 2025-Dec-27 00:00:00.0000, -6.593710262029582E+06, -4.790399736153905E+08, -3.403429935056677E+07,
2461043.500000000, A.D. 2026-Jan-03 00:00:00.0000, -5.705692070985365E+05, -4.800362976727297E+08, -3.424607135733113E+07,
2461050.500000000, A.D. 2026-Jan-10 00:00:00.0000, 5.452840708356906E+06, -4.808235848380417E+08, -3.444292691097170E+07,
2461057.500000000, A.D. 2026-Jan-17 00:00:00.0000, 1.147390677372986E+07, -4.814025718858780E+08, -3.462485746143955E+07,
2461064.500000000, A.D. 2026-Jan-24 00:00:00.0000, 1.749004008976404E+07, -4.817739092921744E+08, -3.479184884902078E+07,
2461071.500000000, A.D. 2026-Jan-31 00:00:00.0000, 2.349867001213912E+07, -4.819381625753991E+08, -3.494388126961821E+07,
2461078.500000000, A.D. 2026-Feb-07 00:00:00.0000, 2.949723876992255E+07, -4.818958135996900E+08, -3.508092924708065E+07,
2461085.500000000, A.D. 2026-Feb-14 00:00:00.0000, 3.548319648125012E+07, -4.816472618608075E+08, -3.520296163668644E+07,
2461092.500000000, A.D. 2026-Feb-21 00:00:00.0000, 4.145399692381745E+07, -4.811928251820386E+08, -3.530994164765084E+07,
2461099.500000000, A.D. 2026-Feb-28 00:00:00.0000, 4.740709294611908E+07, -4.805327386693175E+08, -3.540182669026333E+07,
2461106.500000000, A.D. 2026-Mar-07 00:00:00.0000, 5.333992943256979E+07, -4.796671538767797E+08, -3.547856801752126E+07,
2461113.500000000, A.D. 2026-Mar-14 00:00:00.0000, 5.924993657107393E+07, -4.785961405163812E+08, -3.554011060586339E+07,
2461120.500000000, A.D. 2026-Mar-21 00:00:00.0000, 6.513452517893571E+07, -4.773196878155918E+08, -3.558639320113468E+07,
2461127.500000000, A.D. 2026-Mar-28 00:00:00.0000, 7.099108204972462E+07, -4.758377044964693E+08, -3.561734826076761E+07,
2461134.500000000, A.D. 2026-Apr-04 00:00:00.0000, 7.681696468842252E+07, -4.741500183427832E+08, -3.563290181493577E+07,
2461141.500000000, A.D. 2026-Apr-11 00:00:00.0000, 8.260949567884311E+07, -4.722563757154300E+08, -3.563297330033791E+07,
2461148.500000000, A.D. 2026-Apr-18 00:00:00.0000, 8.836595681146498E+07, -4.701564410224916E+08, -3.561747538079855E+07,
2461155.500000000, A.D. 2026-Apr-25 00:00:00.0000, 9.408358298500799E+07, -4.678497961281946E+08, -3.558631375665537E+07,
2461162.500000000, A.D. 2026-May-02 00:00:00.0000, 9.975955587846822E+07, -4.653359397289618E+08, -3.553938696710780E+07,
2461169.500000000, A.D. 2026-May-09 00:00:00.0000, 1.053909974822412E+08, -4.626142867615104E+08, -3.547658620130342E+07,
2461176.500000000, A.D. 2026-May-16 00:00:00.0000, 1.109749638273830E+08, -4.596841677037292E+08, -3.539779514042220E+07,
2461183.500000000, A.D. 2026-May-23 00:00:00.0000, 1.165084389221129E+08, -4.565448267449440E+08, -3.530288975078657E+07,
2461190.500000000, A.D. 2026-May-30 00:00:00.0000, 1.219883267700087E+08, -4.531954185040532E+08, -3.519173780997062E+07,
2461197.500000000, A.D. 2026-Jun-06 00:00:00.0000, 1.274114411012473E+08, -4.496350065656979E+08, -3.506419840299577E+07,
2461204.500000000, A.D. 2026-Jun-13 00:00:00.0000, 1.327744964273815E+08, -4.458625636324345E+08, -3.492012170730093E+07,
2461211.500000000, A.D. 2026-Jun-20 00:00:00.0000, 1.380740998573475E+08, -4.418769703651652E+08, -3.475934878011364E+07,
2461218.500000000, A.D. 2026-Jun-27 00:00:00.0000, 1.433067419076660E+08, -4.376770132502130E+08, -3.458171121876618E+07,
2461225.500000000, A.D. 2026-Jul-04 00:00:00.0000, 1.484687862300359E+08, -4.332613822660891E+08, -3.438703075560459E+07,
2461232.500000000, A.D. 2026-Jul-11 00:00:00.0000, 1.535564584246594E+08, -4.286286684799991E+08, -3.417511881964806E+07,
2461239.500000000, A.D. 2026-Jul-18 00:00:00.0000, 1.585658339363355E+08, -4.237773615466754E+08, -3.394577606922731E+07,
2461246.500000000, A.D. 2026-Jul-25 00:00:00.0000, 1.634928249508553E+08, -4.187058471056232E+08, -3.369879189519861E+07,
2461253.500000000, A.D. 2026-Aug-01 00:00:00.0000, 1.683331662204345E+08, -4.134124041252002E+08, -3.343394390049925E+07,
2461260.500000000, A.D. 2026-Aug-08 00:00:00.0000, 1.730823998990690E+08, -4.078952022329741E+08, -3.315099737600404E+07,
2461267.500000000, A.D. 2026-Aug-15 00:00:00.0000, 1.777358596504811E+08, -4.021522985900191E+08, -3.284970477108201E+07,
2461274.500000000, A.D. 2026-Aug-22 00:00:00.0000, 1.822886530924394E+08, -3.961816330998732E+08, -3.252980498601198E+07,
2461281.500000000, A.D. 2026-Aug-29 00:00:00.0000, 1.867356400867313E+08, -3.899810233389796E+08, -3.219102238471761E+07,
$$EOE